NORAD_CAT_ID,OBJECT_NAME,OBJECT_TYPE,EPOCH,MEAN_MOTION,ECCENTRICITY,INCLINATION,RA_OF_ASC_NODE,ARG_OF_PERICENTER,MEAN_ANOMALY,BSTAR,MEAN_MOTION_DOT,MEAN_MOTION_DDOT,TLE_LINE0,TLE_LINE1,TLE_LINE2,SEMIMAJOR_AXIS,PERIOD,APOGEE,PERIGEE,DECAYED
52602.0,STARLINK-4012,PAYLOAD,2022-10-25 09:25:30,15.08813892,0.0002363,53.2182,46.6233,34.1523,325.9621,-0.0001776999999999,-3.113e-05,0.0,0 STARLINK-4012,1 52602U 22052E   22298.39271617 -.00003113  00000-0 -17770-3 0  9990,2 52602  53.2182  46.6233 0002363  34.1523 325.9621 15.08813892 25778,6917.96,95.439,541.46,538.19,0.0
52602.0,STARLINK-4012,PAYLOAD,2022-10-25 14:11:39,15.08821626,0.0001966999999999,53.218,45.7298,41.094,319.02,-9.8387e-05,-1.853e-05,0.0,0 STARLINK-4012,1 52602U 22052E   22298.59143086 -.00001853  00000-0 -98387-4 0  9993,2 52602  53.2180  45.7298 0001967  41.0940 319.0200 15.08821626 25801,6917.937,95.439,541.1619999999998,538.441,0.0
52602.0,STARLINK-4012,PAYLOAD,2022-10-26 12:27:04,15.08826307,0.000205,53.2174,41.566,37.6814,322.4321,0.00031246,4.686e-05,0.0,0 STARLINK-4012,1 52602U 22052E   22299.51879698  .00004686  00000-0  31246-3 0  9996,2 52602  53.2174  41.5660 0002050  37.6814 322.4321 15.08826307 25944,6917.922,95.438,541.205,538.369,0.0
52602.0,STARLINK-4012,PAYLOAD,2022-10-26 14:02:27,15.0883083,0.0002,53.2182,41.2689,33.0913,327.0204,0.00035052,5.293e-05,0.0,0 STARLINK-4012,1 52602U 22052E   22299.58503572  .00005293  00000-0  35052-3 0  9992,2 52602  53.2182  41.2689 0002000  33.0913 327.0204 15.08830830 25954,6917.908,95.438,541.1569999999998,538.39,0.0
52602.0,STARLINK-4012,PAYLOAD,2022-10-27 02:45:32,15.08844307,0.0002021999999999,53.2176,38.8903,38.0668,322.0467,0.00056768,8.759e-05,0.0,0 STARLINK-4012,1 52602U 22052E   22300.11495509  .00008759  00000-0  56768-3 0  9991,2 52602  53.2176  38.8903 0002022  38.0668 322.0467 15.08844307 25606,6917.8669999999975,95.437,541.131,538.3330000000002,0.0
52602.0,STARLINK-4012,PAYLOAD,2022-10-27 09:07:04,15.08859507,0.0002123,53.2173,37.7007,36.256,323.8576,0.00066508,0.00010318,0.0,0 STARLINK-4012,1 52602U 22052E   22300.37991179  .00010318  00000-0  66508-3 0  9990,2 52602  53.2173  37.7007 0002123  36.2560 323.8576 15.08859507 26079,6917.821,95.436,541.154,538.217,0.0
52602.0,STARLINK-4012,PAYLOAD,2022-10-27 13:53:13,15.08857416,0.0002052,53.2174,36.809,36.9167,323.1966,0.00045803,7.012e-05,0.0,0 STARLINK-4012,1 52602U 22052E   22300.57863009  .00007012  00000-0  45803-3 0  9994,2 52602  53.2174  36.8090 0002052  36.9167 323.1966 15.08857416 26100,6917.8269999999975,95.436,541.112,538.273,0.0
52602.0,STARLINK-4012,PAYLOAD,2022-10-28 05:47:04,15.08850548,0.0002070999999999,53.217,33.8357,38.0456,322.0682,1.9473e-05,2.2e-07,0.0,0 STARLINK-4012,1 52602U 22052E   22301.24102577  .00000022  00000-0  19473-4 0  9994,2 52602  53.2170  33.8357 0002071  38.0456 322.0682 15.08850548 25778,6917.848000000001,95.437,541.146,538.28,0.0
52602.0,STARLINK-4012,PAYLOAD,2022-10-28 12:08:37,15.08853274,0.0002017,53.2177,32.6457,40.3741,319.74,0.00015108,2.118e-05,0.0,0 STARLINK-4012,1 52602U 22052E   22301.50598407  .00002118  00000-0  15108-3 0  9992,2 52602  53.2177  32.6457 0002017  40.3741 319.7400 15.08853274 26249,6917.84,95.437,541.1,538.309,0.0
52602.0,STARLINK-4012,PAYLOAD,2022-10-29 15:10:09,15.08847776,0.0002223,53.2181,27.5891,38.1928,321.9221,2.8877e-05,1.71e-06,0.0,0 STARLINK-4012,1 52602U 22052E   22302.63206016  .00000171  00000-0  28877-4 0  9994,2 52602  53.2181  27.5891 0002223  38.1928 321.9221 15.08847776 25986,6917.857,95.437,541.259,538.184,0.0
52602.0,STARLINK-4012,PAYLOAD,2022-10-30 11:50:09,15.08853253,0.0001899999999999,53.2175,23.7245,39.5153,320.5978,0.000149,2.085e-05,0.0,0 STARLINK-4012,1 52602U 22052E   22303.49316973  .00002085  00000-0  14900-3 0  9990,2 52602  53.2175  23.7245 0001900  39.5153 320.5978 15.08853253 26540,6917.84,95.437,541.019,538.39,0.0
52602.0,STARLINK-4012,PAYLOAD,2022-10-31 11:40:58,15.08818363,0.0002013,53.218,19.2645,34.6662,325.4461,-0.00030124,-5.076e-05,0.0,0 STARLINK-4012,1 52602U 22052E   22304.48679256 -.00005076  00000-0 -30124-3 0  9997,2 52602  53.2180  19.2645 0002013  34.6662 325.4461 15.08818363 26697,6917.946999999999,95.439,541.2040000000002,538.419,0.0
52602.0,STARLINK-4012,PAYLOAD,2022-10-31 14:51:45,15.088213199999998,0.0002292,53.217,18.6696,32.5157,327.5976,-0.00026045,-4.429e-05,0.0,0 STARLINK-4012,1 52602U 22052E   22304.61927336 -.00004429  00000-0 -26045-3 0  9995,2 52602  53.2170  18.6696 0002292  32.5157 327.5976 15.08821320 26286,6917.937,95.439,541.388,538.217,0.0
52602.0,STARLINK-4012,PAYLOAD,2022-11-01 03:34:50,15.08836579,0.0002159,53.2175,16.2909,37.3543,322.7599,8.3946e-05,1.048e-05,0.0,0 STARLINK-4012,1 52602U 22052E   22305.14919039  .00001048  00000-0  83946-4 0  9991,2 52602  53.2175  16.2909 0002159  37.3543 322.7599 15.08836579 26365,6917.891,95.438,541.249,538.262,0.0
52602.0,STARLINK-4012,PAYLOAD,2022-11-01 11:31:46,15.08854742,0.0002289,53.2174,14.8037,37.3,322.8151,0.0016862,0.00026661,0.0,0 STARLINK-4012,1 52602U 22052E   22305.48039675  .00026661  00000-0  16862-2 0  9996,2 52602  53.2174  14.8037 0002289  37.3000 322.8151 15.08854742 26842,6917.835,95.437,541.284,538.117,0.0
52602.0,STARLINK-4012,PAYLOAD,2022-11-01 14:42:32,15.08863305,0.0002374,53.2175,14.2095,37.2023,322.9133,0.0017517,0.00027719,0.0,0 STARLINK-4012,1 52602U 22052E   22305.61287507  .00027719  00000-0  17517-2 0  9993,2 52602  53.2175  14.2095 0002374  37.2023 322.9133 15.08863305 26431,6917.809,95.436,541.316,538.0319999999998,0.0
52602.0,STARLINK-4012,PAYLOAD,2022-11-02 05:01:00,15.08846116,0.0002311,53.2185,11.5349,29.9738,330.1386,0.00024571,3.625e-05,0.0,0 STARLINK-4012,1 52602U 22052E   22306.20903441  .00003625  00000-0  24571-3 0  9990,2 52602  53.2185  11.5349 0002311  29.9738 330.1386 15.08846116 26528,6917.861999999999,95.437,541.325,538.128,0.0
52602.0,STARLINK-4012,PAYLOAD,2022-11-02 11:22:33,15.08837734,0.000217,53.2179,10.3435,35.5817,324.532,0.00019303,2.785e-05,0.0,0 STARLINK-4012,1 52602U 22052E   22306.47399694  .00002785  00000-0  19303-3 0  9991,2 52602  53.2179  10.3435 0002170  35.5817 324.5320 15.08837734 26990,6917.887,95.438,541.253,538.251,0.0
52602.0,STARLINK-4012,PAYLOAD,2022-11-02 20:54:52,15.08841831,0.0002315,53.2186,8.5581,34.6146,325.4997,0.00011022,1.466e-05,0.0,0 STARLINK-4012,1 52602U 22052E   22306.87143554  .00001466  00000-0  11022-3 0  9992,2 52602  53.2186   8.5581 0002315  34.6146 325.4997 15.08841831 27056,6917.875,95.437,541.341,538.138,0.0
52602.0,STARLINK-4012,PAYLOAD,2022-11-03 12:48:42,15.08857602,0.0002187,53.2175,5.5865,33.5696,326.5435,0.00060897,9.422e-05,0.0,0 STARLINK-4012,1 52602U 22052E   22307.53383065  .00009422  00000-0  60897-3 0  9993,2 52602  53.2175   5.5865 0002187  33.5696 326.5435 15.08857602 26726,6917.8269999999975,95.436,541.205,538.179,0.0
52602.0,STARLINK-4012,PAYLOAD,2022-11-04 09:28:42,15.08868475,0.0002336,53.2182,1.7197,30.2062,329.9065,0.00036043,5.457e-05,0.0,0 STARLINK-4012,1 52602U 22052E   22308.39493614  .00005457  00000-0  36043-3 0  9990,2 52602  53.2182   1.7197 0002336  30.2062 329.9065 15.08868475 27285,6917.793000000002,95.436,541.274,538.0419999999998,0.0
52602.0,STARLINK-4012,PAYLOAD,2022-11-05 09:19:29,15.08833113,0.0003062,53.2177,357.2631,17.5269,342.5828,-0.00026937,-4.573e-05,0.0,0 STARLINK-4012,1 52602U 22052E   22309.38854164 -.00004573  00000-0 -26937-3 0  9992,2 52602  53.2177 357.2631 0003062  17.5269 342.5828 15.08833113 27004,6917.901,95.438,541.885,537.648,0.0
52602.0,STARLINK-4012,PAYLOAD,2022-11-05 20:27:13,15.08805658,0.0002225,53.217,355.1797,40.7756,319.3403,-0.00046926,-7.742e-05,0.0,0 STARLINK-4012,1 52602U 22052E   22309.85223611 -.00007742  00000-0 -46926-3 0  9992,2 52602  53.2170 355.1797 0002225  40.7756 319.3403 15.08805658 27077,6917.985,95.44,541.39,538.311,0.0
52602.0,STARLINK-4012,PAYLOAD,2022-11-06 12:21:05,15.08817698,0.000233,53.2164,352.2057,38.0316,322.084,0.00051602,7.929e-05,0.0,0 STARLINK-4012,1 52602U 22052E   22310.51465034  .00007929  00000-0  51602-3 0  9996,2 52602  53.2164 352.2057 0002330  38.0316 322.0840 15.08817698 27170,6917.949000000001,95.439,541.425,538.202,0.0
52602.0,STARLINK-4012,PAYLOAD,2022-11-06 23:28:48,15.08835694,0.0002383,53.2166,350.1239,34.3859,325.7287,0.0010734,0.00016835,0.0,0 STARLINK-4012,1 52602U 22052E   22310.97833438  .00016835  00000-0  10734-2 0  9999,2 52602  53.2166 350.1239 0002383  34.3859 325.7287 15.08835694 27249,6917.894,95.438,541.4069999999998,538.11,0.0
52602.0,STARLINK-4012,PAYLOAD,2022-11-07 12:11:53,15.08843961,0.0002398,53.217,347.7454,33.7115,326.4029,0.00073431,0.00011419,0.0,0 STARLINK-4012,1 52602U 22052E   22311.50825533  .00011419  00000-0  73431-3 0  9993,2 52602  53.2170 347.7454 0002398  33.7115 326.4029 15.08843961 27326,6917.868,95.437,541.3919999999998,538.0740000000002,0.0
52602.0,STARLINK-4012,PAYLOAD,2022-11-08 08:51:53,15.08865019,0.0002474,53.2175,343.8801,33.4744,326.6404,0.00061796,9.567e-05,0.0,0 STARLINK-4012,1 52602U 22052E   22312.36936376  .00009567  00000-0  61796-3 0  9998,2 52602  53.2175 343.8801 0002474  33.4744 326.6404 15.08865019 27882,6917.804,95.436,541.38,537.957,0.0
52602.0,STARLINK-4012,PAYLOAD,2022-11-09 02:21:07,15.08847626,0.0002898999999999,53.218,340.6106,17.4957,342.6134,-0.00021828,-3.762e-05,0.0,0 STARLINK-4012,1 52602U 22052E   22313.09799847 -.00003762  00000-0 -21828-3 0  9994,2 52602  53.2180 340.6106 0002899  17.4957 342.6134 15.08847626 27567,6917.857,95.437,541.7280000000002,537.717,0.0
52602.0,STARLINK-4012,PAYLOAD,2022-11-09 11:53:25,15.08857583,0.0002398,53.2171,338.8246,30.1213,329.9917,0.00016784,2.385e-05,0.0,0 STARLINK-4012,1 52602U 22052E   22313.49543319  .00002385  00000-0  16784-3 0  9992,2 52602  53.2171 338.8246 0002398  30.1213 329.9917 15.08857583 28057,6917.8269999999975,95.436,541.351,538.033,0.0
